STARLINK-37527          
1 68895U 26097A   26195.54668096  .00004079  00000+0  12863-3 0  9999
2 68895  97.2852  30.5864 0001743  96.5830 263.5611 15.33440040 11676
STARLINK-37432          
1 68896U 26097B   26195.51405413  .00008913  00000+0  27812-3 0  9990
2 68896  97.2849  30.6312 0001687  96.8549 263.2886 15.33439123 11670
STARLINK-37534          
1 68897U 26097C   26195.49774126  .00008241  00000+0  25731-3 0  9990
2 68897  97.2842  30.6520 0001879  90.1930 269.9528 15.33444613 11675
STARLINK-37386          
1 68898U 26097D   26195.53037194  .00009125  00000+0  28443-3 0  9998
2 68898  97.2848  30.6075 0002308 109.1529 250.9964 15.33465529 11673
STARLINK-37514          
1 68899U 26097E   26195.53852361  .00006779  00000+0  21210-3 0  9997
2 68899  97.2837  30.5977 0002585 109.7059 250.4463 15.33445217 11674
STARLINK-36961          
1 68900U 26097F   26195.52223273  .00012687  00000+0  39483-3 0  9999
2 68900  97.2843  30.6184 0001670  87.0649 273.0785 15.33430536 11678
STARLINK-37360          
1 68901U 26097G   26195.55483906  .00012055  00000+0  37522-3 0  9995
2 68901  97.2854  30.7273 0001525  92.6363 267.5054 15.33436015 11681
STARLINK-37564          
1 68902U 26097H   26195.50589741  .00006873  00000+0  21507-3 0  9992
2 68902  97.2849  30.6411 0001626  84.6626 275.4802 15.33438071 11676
STARLINK-37567          
1 68903U 26097J   26195.52764773  .00005101  00000+0  16023-3 0  9995
2 68903  97.2845  30.6115 0002088  93.7074 266.4408 15.33442380 11675
STARLINK-37528          
1 68904U 26097K   26195.50317948  .00007014  00000+0  21938-3 0  9998
2 68904  97.2845  30.6455 0002016  89.0104 271.1370 15.33442663 11671
STARLINK-37494          
1 68905U 26097L   26195.51950605  .00007663  00000+0  23942-3 0  9990
2 68905  97.2842  30.6215 0001514  89.4129 270.7287 15.33446276 11672
STARLINK-37541          
1 68906U 26097M   26195.54397064  .00005832  00000+0  18294-3 0  9998
2 68906  97.2856  30.5909 0001714 101.5044 258.6392 15.33427779 11670
STARLINK-37551          
1 68907U 26097N   26195.54124248  .00006935  00000+0  21696-3 0  9996
2 68907  97.2853  30.5933 0001713  93.5429 266.6010 15.33443542 11673
STARLINK-37566          
1 68908U 26097P   26195.53580562  .00005053  00000+0  15877-3 0  9995
2 68908  97.2850  30.6021 0001759  91.0176 269.1268 15.33439993 11670
STARLINK-37544          
1 68909U 26097Q   26195.53309111 -.00010012  00000+0 -30854-3 0  9990
2 68909  97.2852  30.6048 0001167 113.8071 246.3294 15.33410030 11679
STARLINK-37493          
1 68910U 26097R   26195.52493031  .00012212  00000+0  37998-3 0  9994
2 68910  97.2846  30.6161 0002749 113.7131 246.4400 15.33441298 11673
STARLINK-37543          
1 68911U 26097S   26195.51134439  .00006582  00000+0  20621-3 0  9996
2 68911  97.2848  30.6342 0001827  89.1703 270.9749 15.33417435 11678
STARLINK-37477          
1 68912U 26097T   26195.50045937  .00007075  00000+0  22126-3 0  9990
2 68912  97.2832  30.6477 0002385  88.1531 271.9985 15.33442789 11672
STARLINK-37504          
1 68913U 26097U   26195.51677336  .00015326  00000+0  47606-3 0  9994
2 68913  97.2832  30.6252 0002581 108.0351 252.1173 15.33443722 11672
STARLINK-37540          
1 68914U 26097V   26195.50861680  .00010356  00000+0  32276-3 0  9996
2 68914  97.2853  30.6372 0001599  83.3308 276.8117 15.33436338 11670
STARLINK-37516          
1 68915U 26097W   26195.48686347  .00007522  00000+0  23511-3 0  9992
2 68915  97.2855  30.6690 0001705  92.1896 267.9542 15.33440494 11676
STARLINK-37507          
1 68916U 26097X   26195.56027652  .00006233  00000+0  19527-3 0  9990
2 68916  97.2852  30.7220 0001475  92.5083 267.6329 15.33440187 11680
STARLINK-37542          
1 68917U 26097Y   26195.49230223  .00006252  00000+0  19585-3 0  9998
2 68917  97.2853  30.6596 0001585  85.0280 275.1144 15.33441896 11671
STARLINK-37529          
1 68918U 26097Z   26195.54940001  .00005740  00000+0  18000-3 0  9999
2 68918  97.2853  30.7345 0001781  96.8886 263.2559 15.33440513 11689
STARLINK-37258          
1 68951U 26099A   26195.51735135  .00012145  00000+0  36998-3 0  9998
2 68951  53.1580  33.8646 0001761  44.0003 316.1140 15.34401955 11464
STARLINK-37308          
1 68952U 26099B   26194.86390573  .00010254  00000+0  31440-3 0  9995
2 68952  53.1575  36.9105 0001305 147.0351 213.0733 15.34379163 11364
STARLINK-37337          
1 68953U 26099C   26194.99204948  .00004671  00000+0  14927-3 0  9997
2 68953  53.1581  36.2864 0001358  94.3416 265.7742 15.34404490 11389
STARLINK-37301          
1 68954U 26099D   26195.24839182  .00016542  00000+0  49961-3 0  9997
2 68954  53.1576  35.0375 0001348  72.5315 287.5834 15.34400975 11426
STARLINK-36794          
1 68955U 26099E   26194.85967645  .00009377  00000+0  28829-3 0  9998
2 68955  53.1584  36.8662 0001135 102.4705 257.6425 15.34403591 11368
STARLINK-36760          
1 68956U 26099F   26194.85547057  .00014863  00000+0  45015-3 0  9992
2 68956  53.1579  36.8388 0001063  93.4664 266.6461 15.34400663 11368
